YAOGAN 30 S             
1 45461U 20021B   22012.07670742  .00000348  00000+0  38062-4 0  9992
2 45461  34.9961 236.9681 0003992 285.3460  74.6812 14.90106850 98302
YAOGAN 30 T             
1 45462U 20021C   22012.05363651  .00000338  00000+0  37091-4 0  9999
2 45462  34.9978 234.9811 0001043  80.5297 279.5534 14.90101188 98320
AEHF-6 (USA 298)        
1 45465U 20022B   22011.84557648 -.00000281  00000+0  00000+0 0  9993
2 45465   6.3043 304.1746 0052437 355.2299 254.0645  1.00269649  6798
NOOR                    
1 45529U 20024A   22012.04801248  .00056163  00000+0  55210-3 0  9993
2 45529  59.8018 158.2110 0013449 130.9603 346.0108 15.65513195 97727
STARLINK-1329           
1 45531U 20025A   22011.47392546 -.00000343  00000+0 -41480-5 0  9996
2 45531  53.0563  82.1458 0001123  73.8893 286.2219 15.06400930 96266
STARLINK-1338           
1 45532U 20025B   22011.55133373 -.00001293  00000+0 -67937-4 0  9996
2 45532  53.0555  81.8082 0001329  99.1568 260.9572 15.06394706 96270
STARLINK-1339           
1 45533U 20025C   22012.17029222  .00117355  00000+0  39278-2 0  9993
2 45533  53.0512  70.6649 0002229  43.3485 316.7689 15.30068915 95880
STARLINK-1341           
1 45534U 20025D   22011.49604021 -.00001841  00000+0 -10478-3 0  9990
2 45534  53.0550  82.0572 0001282  87.0851 273.0285 15.06392263 96264
STARLINK-1350           
1 45535U 20025E   22011.64716281 -.00001489  00000+0 -81077-4 0  9992
2 45535  53.0555  81.3889 0001326  82.2376 277.8763 15.06396940 96293
STARLINK-1352           
1 45536U 20025F   22011.58450133  .00000547  00000+0  55588-4 0  9997
2 45536  53.0546  81.6590 0001195  79.6814 280.4310 15.06397211 96275
STARLINK-1353           
1 45537U 20025G   22011.61467774  .00008349  00000+0  43846-3 0  9992
2 45537  53.0022  51.4908 0000044 228.5559 131.5430 15.16519512 96681
STARLINK-1362           
1 45538U 20025H   22011.61029901 -.00001728  00000+0 -97120-4 0  9990
2 45538  53.0554  81.5421 0001186  84.4736 275.6389 15.06397558 96282
STARLINK-1367           
1 45539U 20025J   22012.11761260  .00003543  00000+0  25654-4 0  9996
2 45539  53.0510 316.0817 0004080   8.6691 351.4398 15.76734489 97463
STARLINK-1368           
1 45540U 20025K   22012.18531500 -.00001367  00000+0 -72941-4 0  9992
2 45540  53.0536  78.9591 0001154  85.3668 274.7453 15.06393142 95783
STARLINK-1369           
1 45541U 20025L   22012.18900085 -.00000895  00000+0 -41209-4 0  9999
2 45541  53.0544  78.9413 0001380  70.3207 289.7931 15.06395409 95774
STARLINK-1371           
1 45542U 20025M   22012.15582653 -.00001877  00000+0 -10717-3 0  9994
2 45542  53.0557  79.0962 0001003  77.4915 282.6186 15.06396304 95775
STARLINK-1372           
1 45543U 20025N   22011.59555817  .00000577  00000+0  57616-4 0  9998
2 45543  53.0560  81.6011 0001015  80.2778 279.8325 15.06405595 95378
STARLINK-1373           
1 45544U 20025P   22011.48128988 -.00000254  00000+0  18186-5 0  9995
2 45544  53.0552  82.1282 0001145  81.0070 279.1049 15.06393008 96264
STARLINK-1374           
1 45545U 20025Q   22011.56607795 -.00001189  00000+0 -60960-4 0  9998
2 45545  53.0540  81.7454 0001170  85.5612 274.5510 15.06384299 96250
STARLINK-1375           
1 45546U 20025R   22011.57712826  .00000541  00000+0  55199-4 0  9999
2 45546  53.0540  81.6847 0001009  86.6277 273.4827 15.06398103 96276
STARLINK-1377           
1 45547U 20025S   22011.57344772 -.00000912  00000+0 -42342-4 0  9991
2 45547  53.0538  81.6980 0001297  90.3875 269.7262 15.06397083 96285
STARLINK-1378           
1 45548U 20025T   22011.59926603  .00022201  00000+0  15093-2 0  9997
2 45548  53.0554  81.5985 0001812  75.5049 284.6141 15.06284071 96272
STARLINK-1379           
1 45549U 20025U   22012.12167472 -.00028099  00000+0 -10130-3 0  9990
2 45549  53.0510  55.5310 0006132 277.4210  82.6117 15.87433591 96092
STARLINK-1390           
1 45550U 20025V   22012.14750879 -.00001206  00000+0 -62071-4 0  9996
2 45550  53.0554  79.1394 0001241  90.1633 269.9498 15.06390164 95765
STARLINK-1294           
1 45551U 20025W   22011.75222217 -.00001208  00000+0 -62222-4 0  9993
2 45551  53.0543  60.9091 0001393  78.5912 281.5233 15.06393534 96586
STARLINK-1322           
1 45552U 20025X   22011.78107219  .00030359  00000+0  67614-3 0  9997
2 45552  53.0570  37.9249 0002669  58.5959 301.5307 15.43377542 96905
STARLINK-1323           
1 45553U 20025Y   22011.49788593 -.00002461  00000+0 -14641-3 0  9993
2 45553  53.0555  62.0583 0001456  71.4188 288.6959 15.06394111 95255
STARLINK-1325           
1 45554U 20025Z   22011.42416298 -.00000960  00000+0 -45576-4 0  9991
2 45554  53.0543  62.3798 0001308  79.0256 281.0880 15.06398590 96537
STARLINK-1327           
1 45555U 20025AA  22011.52000127 -.00001076  00000+0 -53372-4 0  9995
2 45555  53.0542  61.9496 0001245  84.5351 275.5780 15.06395713 96546
STARLINK-1334           
1 45556U 20025AB  22011.56054368 -.00002389  00000+0 -14159-3 0  9993
2 45556  53.0548  61.7751 0001296  76.9341 283.1793 15.06394599 96556
STARLINK-1336           
1 45557U 20025AC  22011.63425568  .00000136  00000+0  27993-4 0  9993
2 45557  53.0540  61.4330 0001316  77.3833 282.7303 15.06395312 95963
STARLINK-1342           
1 45558U 20025AD  22011.53474090 -.00001843  00000+0 -10489-3 0  9996
2 45558  53.0564  61.8867 0001511  95.1208 264.9953 15.06400203 95947
STARLINK-1344           
1 45559U 20025AE  22011.50525322  .00000052  00000+0  22383-4 0  9995
2 45559  53.0555  62.0100 0001381  75.9116 284.2026 15.06393098 96546
STARLINK-1346           
1 45560U 20025AF  22012.08854858 -.00000642  00000+0 -24242-4 0  9993
2 45560  53.0558  49.4020 0001234  76.7410 283.3717 15.06401752 96177
STARLINK-1348           
1 45561U 20025AG  22011.37956103  .00007466  00000+0  49252-3 0  9997
2 45561  53.0593 336.5223 0002026  96.5230 263.5991 15.08394742 97731
STARLINK-1354           
1 45562U 20025AH  22011.51263524 -.00001410  00000+0 -75824-4 0  9992
2 45562  53.0545  61.9789 0001069  83.5633 276.5478 15.06392353 96540
STARLINK-1355           
1 45563U 20025AJ  22011.46101968  .00000304  00000+0  39273-4 0  9997
2 45563  53.0558  62.2217 0001146  81.1915 278.9203 15.06398449 95934
STARLINK-1356           
1 45564U 20025AK  22011.52368226  .00000138  00000+0  28177-4 0  9993
2 45564  53.0554  61.9245 0001332  76.7945 283.3192 15.06397846 96543
STARLINK-1357           
1 45565U 20025AL  22011.64901246 -.00000979  00000+0 -46863-4 0  9999
2 45565  53.0548  61.3695 0001405  71.5516 288.5626 15.06389064 96562
STARLINK-1358           
1 45566U 20025AM  22011.53105079 -.00000179  00000+0  68881-5 0  9994
2 45566  53.0553  61.9066 0001433  83.6081 276.5071 15.06398320 96543
STARLINK-1361           
1 45567U 20025AN  22011.54211227 -.00000054  00000+0  15304-4 0  9992
2 45567  53.0547  61.8446 0001419  86.2245 273.8906 15.06392115 96557
STARLINK-1363           
1 45568U 20025AP  22011.46744943  .00000119  00000+0  26862-4 0  9992
2 45568  53.0553  62.1877 0001387  81.8736 278.2410 15.06400447 96532
STARLINK-1366           
1 45569U 20025AQ  22012.14292574 -.00001283  00000+0 -67250-4 0  9998
2 45569  53.0550  59.1527 0001307  74.1266 285.9867 15.06396068 96032
STARLINK-1376           
1 45570U 20025AR  22011.60477414 -.00000710  00000+0 -28795-4 0  9993
2 45570  53.0544  61.5653 0001278  83.5176 276.5958 15.06399839 96558
STARLINK-1261           
1 45571U 20025AS  22012.08485928  .00000371  00000+0  43789-4 0  9997
2 45571  53.0558  49.4239 0001544  75.4889 284.6271 15.06401943 96172
STARLINK-1320           
1 45572U 20025AT  22012.14385512 -.00000693  00000+0 -27679-4 0  9992
2 45572  53.0558  49.1597 0001439  81.3646 278.7506 15.06383032 96170
STARLINK-1321           
1 45573U 20025AU  22011.78999002 -.00001389  00000+0 -74357-4 0  9995
2 45573  53.0563  50.7399 0001391  75.0914 285.0229 15.06396497 96420
STARLINK-1324           
1 45574U 20025AV  22011.48405891 -.00000052  00000+0  15396-4 0  9994
2 45574  53.0564  52.1179 0001550  74.3213 285.7947 15.06392469 96693
STARLINK-1326           
1 45575U 20025AW  22011.78685879  .00005455  00000+0  35636-3 0  9993
2 45575  53.0020  45.6306 0001445  81.7151 278.4002 15.09273887 96782
STARLINK-1328           
1 45576U 20025AX  22011.37716931 -.00001735  00000+0 -97609-4 0  9991
2 45576  53.0548  52.5853 0001339  71.6042 288.5093 15.06394763 96675
STARLINK-1330           
1 45577U 20025AY  22012.06275997 -.00001927  00000+0 -11049-3 0  9997
2 45577  53.0541  49.5101 0001446  67.7704 292.3438 15.06393803 96165
STARLINK-1331           
1 45578U 20025AZ  22011.50248980  .00000013  00000+0  19771-4 0  9992
2 45578  53.0563  52.0384 0001332  72.8029 287.3106 15.06390998 96699
STARLINK-1332           
1 45579U 20025BA  22011.69321386  .00000537  00000+0  54925-4 0  9996
2 45579  53.0555  11.1648 0001932 187.9030 172.1929 15.06402922 97276
STARLINK-1333           
1 45580U 20025BB  22011.50894662 -.00001020  00000+0 -49622-4 0  9998
2 45580  53.0549  61.9929 0001258  76.5987 283.5142 15.06392997 96544
STARLINK-1335           
1 45581U 20025BC  22012.11067554 -.00002231  00000+0 -13098-3 0  9991
2 45581  53.0549  49.2957 0001373  79.6005 280.5139 15.06392126 96174
STARLINK-1337           
1 45582U 20025BD  22011.80105519 -.00002591  00000+0 -15511-3 0  9992
2 45582  53.0533  50.6844 0001406  71.5282 288.5859 15.06392227 96724
STARLINK-1340           
1 45583U 20025BE  22011.51722968 -.00001495  00000+0 -81508-4 0  9996
2 45583  53.0551  51.9564 0001635  59.1645 300.9505 15.06399259 96681
STARLINK-1343           
1 45584U 20025BF  22011.37347858  .00000127  00000+0  27437-4 0  9992
2 45584  53.0551  52.5954 0001067  92.5214 267.5897 15.06401365 96666
STARLINK-1347           
1 45586U 20025BH  22011.79368749 -.00001417  00000+0 -76272-4 0  9998
2 45586  53.0566  50.7145 0001481  68.0525 292.0621 15.06389967 96716
